{"type":"FeatureCollection","features":[{"type":"Feature","properties":{"name":"Есиль"},"geometry":{"type":"MultiPolygon","coordinates":[[[[71.2179735,51.1107853],[71.2258834,51.100177],[71.2454496,51.0683149],[71.2501937,51.0682048],[71.2539916,51.0655786],[71.2555245,51.0636718],[71.2557954,51.0618259],[71.2539919,51.0560155],[71.2548705,51.053916],[71.2549934,51.0489503],[71.2601754,51.0455761],[71.2633002,51.0417143],[71.2659556,51.040608],[71.267876,51.0387916],[71.2692869,51.0343018],[71.275578,51.0302923],[71.2806702,51.0252061],[71.2840927,51.0239475],[71.2859568,51.0222891],[71.2889636,51.0217028],[71.3028762,51.022883],[71.3077337,51.0223734],[71.31228,51.0234988],[71.3184008,51.0239256],[71.3316858,51.0216378],[71.3354717,51.019269],[71.40018,51.0103155],[71.402775,51.0092337],[71.4352785,51.004158],[71.4367587,51.003114],[71.4379495,51.0036828],[71.4541876,51.0008589],[71.4516422,50.9833129],[71.456328,50.9825631],[71.4515305,50.9648994],[71.4509127,50.9604389],[71.4631918,50.9584588],[71.4621779,50.9527717],[71.4611399,50.9505277],[71.4605712,50.9472005],[71.4666948,50.9476888],[71.4692214,50.9458249],[71.4716139,50.937655],[71.4827022,50.9396224],[71.4865565,50.9308192],[71.5469304,50.930891],[71.5486979,50.946511],[71.5542984,50.968299],[71.5526301,50.9756022],[71.5380831,50.9871939],[71.5372194,50.9884636],[71.5368748,50.9900346],[71.537033,51.0068642],[71.5385176,51.0088017],[71.544119,51.0117688],[71.5558464,51.0153795],[71.5502428,51.0295973],[71.5397485,51.0481677],[71.5455374,51.0489104],[71.5474141,51.0511115],[71.5558868,51.0488748],[71.5642497,51.057448],[71.5794688,51.0704206],[71.5880489,51.0747023],[71.6034777,51.0858637],[71.6082702,51.091386],[71.5877938,51.0971889],[71.5276185,51.1034041],[71.5236837,51.103271],[71.5174073,51.101276],[71.5142664,51.100812],[71.5108399,51.1011859],[71.5029609,51.1033266],[71.500048,51.1035506],[71.4981437,51.1031514],[71.4897235,51.0996292],[71.4802141,51.101018],[71.4762783,51.1025148],[71.4740163,51.1046688],[71.471656,51.1054502],[71.4600688,51.1056119],[71.4568931,51.10607],[71.4539749,51.1070939],[71.4511159,51.1088851],[71.4501125,51.1152037],[71.4458502,51.1199958],[71.4463977,51.1217326],[71.451604,51.1239233],[71.452322,51.1247561],[71.452558,51.1262178],[71.4514617,51.1274884],[71.4487669,51.1290339],[71.447477,51.1305687],[71.447178,51.1322813],[71.4417869,51.1404938],[71.4410144,51.1457978],[71.4358646,51.1495937],[71.4310581,51.1502667],[71.4293414,51.1510205],[71.4274961,51.152501],[71.4247066,51.1584497],[71.4235908,51.1594186],[71.4217843,51.160243],[71.4193296,51.1604207],[71.4093646,51.1572124],[71.4066781,51.1573524],[71.4022407,51.1582998],[71.3990306,51.1596778],[71.3952624,51.162813],[71.3738189,51.1645799],[71.3612069,51.1648915],[71.3563437,51.1645067],[71.3546551,51.1658602],[71.3499087,51.167674],[71.3480805,51.1699343],[71.3479517,51.1708115],[71.3443983,51.1727704],[71.3403128,51.1742126],[71.3374804,51.1744009],[71.3342458,51.1742352],[71.331086,51.1726789],[71.3305289,51.1738716],[71.3282427,51.1742799],[71.3269771,51.1753543],[71.326753,51.1756808],[71.3276231,51.1767469],[71.3265711,51.1778166],[71.323947,51.1775653],[71.3230568,51.1766888],[71.3218404,51.1769826],[71.3211747,51.1778504],[71.3198103,51.1772884],[71.3182217,51.178276],[71.3174176,51.1779289],[71.3172528,51.1784619],[71.3155117,51.1789065],[71.3147374,51.1798583],[71.3115794,51.1794109],[71.3116477,51.1800248],[71.3099852,51.1798654],[71.3094083,51.1802675],[71.30945,51.1815333],[71.3082089,51.1816475],[71.3075907,51.182316],[71.305213,51.1819986],[71.2986561,51.1834693],[71.2994568,51.1842088],[71.2980816,51.1843705],[71.2964269,51.1862331],[71.2975903,51.1866695],[71.2962439,51.1877165],[71.2941011,51.1880754],[71.2917747,51.1893066],[71.2862313,51.1890722],[71.2768789,51.1876402],[71.2721296,51.1880463],[71.2719774,51.1870717],[71.2698682,51.1861413],[71.2702716,51.1859404],[71.2704196,51.1846164],[71.2711467,51.1841879],[71.2708619,51.1833608],[71.2719504,51.1839419],[71.2727292,51.1837163],[71.2717839,51.1827928],[71.2733133,51.1813663],[71.2757154,51.1821007],[71.2757928,51.1815438],[71.2762762,51.1814653],[71.2759796,51.1803269],[71.2763428,51.1801176],[71.2775878,51.1808054],[71.2787784,51.1803735],[71.279826,51.1811407],[71.280582,51.1809462],[71.2810878,51.1798395],[71.2819187,51.1793943],[71.2653896,51.1743186],[71.2529817,51.1759598],[71.2544328,51.158226],[71.2427732,51.1576389],[71.2425949,51.152396],[71.2385809,51.1523178],[71.2385005,51.1496998],[71.2361616,51.149646],[71.2369904,51.138379],[71.2367195,51.1328682],[71.2374775,51.1325237],[71.2297137,51.122918],[71.2284488,51.1192183],[71.2289414,51.1151083],[71.2179735,51.1107853]]],[[[71.3667047,50.8669003],[71.4362356,50.8576076],[71.4425066,50.8770764],[71.3732513,50.886331],[71.3667047,50.8669003]]]]}},{"type":"Feature","properties":{"name":"Алматы"},"geometry":{"type":"MultiPolygon","coordinates":[[[[71.438473,51.1475427],[71.4410144,51.1457978],[71.4417869,51.1404938],[71.447178,51.1322813],[71.447389,51.1311552],[71.4834057,51.1254504],[71.4856173,51.1256604],[71.5189503,51.135266],[71.5204207,51.1361815],[71.523811,51.1396942],[71.5244504,51.1398121],[71.5323649,51.1370115],[71.5388856,51.1358968],[71.5589439,51.1363193],[71.566467,51.1357615],[71.6335819,51.1242819],[71.6458805,51.1219276],[71.6677293,51.1159565],[71.7020982,51.107675],[71.7146694,51.1313452],[71.710926,51.1320459],[71.6886863,51.1404306],[71.6730435,51.1400867],[71.6730374,51.1410125],[71.6452048,51.139899],[71.6350822,51.1594628],[71.621449,51.1881776],[71.5878202,51.198553],[71.5829456,51.2032895],[71.5800261,51.2027628],[71.5686321,51.1967325],[71.5629458,51.1952802],[71.5610576,51.1936061],[71.5580213,51.1920596],[71.5578845,51.1913309],[71.5570369,51.1908401],[71.5521958,51.1898054],[71.547797,51.190034],[71.5409734,51.188595],[71.5367248,51.1845064],[71.5339139,51.1834707],[71.5333774,51.1829058],[71.5337637,51.1811976],[71.5333989,51.1807268],[71.5283778,51.1791126],[71.5253406,51.1789965],[71.523831,51.1781838],[71.5208333,51.1798979],[71.514936,51.1820584],[71.5048948,51.1835424],[71.4977602,51.17577],[71.4946034,51.1756151],[71.4920929,51.1739335],[71.4916449,51.1726575],[71.4879086,51.1710813],[71.4853429,51.1688799],[71.4808599,51.1677968],[71.4776428,51.1641376],[71.4740165,51.1636562],[71.4719151,51.1616043],[71.4595844,51.1555096],[71.4549925,51.1546012],[71.4531364,51.1533226],[71.4476325,51.1519363],[71.4431371,51.1494193],[71.438473,51.1475427]]],[[[71.740388,51.16606],[71.7468576,51.1621451],[71.7608792,51.1457224],[71.7661365,51.1446854],[71.782424,51.1504554],[71.7851913,51.1573031],[71.7851103,51.165569],[71.740388,51.16606]]]]}},{"type":"Feature","properties":{"name":"Сарыарка"},"geometry":{"type":"Polygon","coordinates":[[[71.2373028,51.2086912],[71.2398472,51.2076209],[71.2415323,51.2075705],[71.2428303,51.206762],[71.2430866,51.2044107],[71.2427437,51.2027813],[71.240201,51.2032855],[71.2404987,51.2025073],[71.2400293,51.201967],[71.243399,51.200068],[71.2450378,51.1985776],[71.2423385,51.1978299],[71.243488,51.1969258],[71.2454487,51.1965711],[71.248831,51.1949894],[71.24924,51.1936531],[71.2500165,51.1932127],[71.2514234,51.1933909],[71.2518914,51.1926009],[71.2526639,51.192637],[71.251377,51.1907791],[71.2521105,51.1902488],[71.253037,51.1902955],[71.253482,51.191189],[71.2540594,51.1913097],[71.2551234,51.1903405],[71.255078,51.1896294],[71.2557037,51.1893593],[71.25695,51.189486],[71.257002,51.1901567],[71.2574469,51.1903086],[71.2593184,51.1899785],[71.2602069,51.1902262],[71.2601116,51.1916046],[71.2609024,51.1922281],[71.2619201,51.1915473],[71.261149,51.1911536],[71.2614968,51.1902611],[71.2624696,51.1896279],[71.2645247,51.189945],[71.2648104,51.1896363],[71.2643897,51.1891483],[71.26484,51.1889358],[71.2666716,51.1897365],[71.2672379,51.1887031],[71.2690769,51.1896466],[71.2696423,51.1894692],[71.2694733,51.1890237],[71.2715724,51.189282],[71.2732779,51.1885956],[71.2732171,51.1881793],[71.2768789,51.1876402],[71.2862313,51.1890722],[71.2920546,51.1892472],[71.2941011,51.1880754],[71.2962439,51.1877165],[71.2975903,51.1866695],[71.2964269,51.1862331],[71.2980816,51.1843705],[71.2994568,51.1842088],[71.2986561,51.1834693],[71.305213,51.1819986],[71.3075907,51.182316],[71.3082089,51.1816475],[71.30945,51.1815333],[71.3094083,51.1802675],[71.3099852,51.1798654],[71.3116477,51.1800248],[71.3115794,51.1794109],[71.3147374,51.1798583],[71.3155117,51.1789065],[71.3172528,51.1784619],[71.3174176,51.1779289],[71.3182217,51.178276],[71.3198103,51.1772884],[71.3211747,51.1778504],[71.3218404,51.1769826],[71.3230568,51.1766888],[71.323947,51.1775653],[71.3265711,51.1778166],[71.3276231,51.1767469],[71.326753,51.1756808],[71.3269771,51.1753543],[71.3282427,51.1742799],[71.3305289,51.1738716],[71.331086,51.1726789],[71.3342458,51.1742352],[71.3374804,51.1744009],[71.3403128,51.1742126],[71.3443983,51.1727704],[71.3479517,51.1708115],[71.3480805,51.1699343],[71.3499087,51.167674],[71.3546551,51.1658602],[71.3563437,51.1645067],[71.3612069,51.1648915],[71.3738189,51.1645799],[71.3952624,51.162813],[71.3990306,51.1596778],[71.4022407,51.1582998],[71.4066781,51.1573524],[71.4093646,51.1572124],[71.4193296,51.1604207],[71.4217843,51.160243],[71.4247066,51.1584497],[71.4274961,51.152501],[71.428229,51.1518972],[71.4314606,51.1541774],[71.4302164,51.1553311],[71.4241413,51.1772317],[71.4397804,51.1792411],[71.4435583,51.181225],[71.4464047,51.1843503],[71.3671955,51.2094643],[71.3632603,51.2116575],[71.3596747,51.2156333],[71.3561213,51.2186711],[71.3533894,51.2198832],[71.3032624,51.2358777],[71.301586,51.2332326],[71.2603176,51.246318],[71.25568,51.2387972],[71.244691,51.2251326],[71.2477219,51.2243868],[71.2461715,51.2211145],[71.2410914,51.2153647],[71.241462,51.2141573],[71.2405443,51.2137621],[71.2407589,51.2126959],[71.240046,51.2123439],[71.2411967,51.2119071],[71.2406841,51.2114717],[71.2411116,51.2110808],[71.2396626,51.2108983],[71.2400741,51.2104903],[71.2393766,51.2104038],[71.2399218,51.210245],[71.2391777,51.2098738],[71.2374491,51.2096378],[71.2378348,51.2092008],[71.2373028,51.2086912]]]}},{"type":"Feature","properties":{"name":"Байконыр"},"geometry":{"type":"MultiPolygon","coordinates":[[[[71.2980936,51.272763],[71.3092516,51.2638485],[71.3362248,51.2717005],[71.3201952,51.2953906],[71.3061189,51.2909625],[71.3078783,51.2777028],[71.2980936,51.272763]]],[[[71.3032624,51.2358777],[71.3543779,51.2195007],[71.3583062,51.216959],[71.3632603,51.2116575],[71.3671955,51.2094643],[71.4464047,51.1843503],[71.4435583,51.181225],[71.4397804,51.1792411],[71.4241413,51.1772317],[71.4302164,51.1553311],[71.4314606,51.1541774],[71.428229,51.1518972],[71.4310581,51.1502667],[71.4358646,51.1495937],[71.438473,51.1475427],[71.4431371,51.1494193],[71.4476325,51.1519363],[71.4531364,51.1533226],[71.4549925,51.1546012],[71.4595844,51.1555096],[71.4719151,51.1616043],[71.4740165,51.1636562],[71.4776428,51.1641376],[71.4808599,51.1677968],[71.4853429,51.1688799],[71.4879086,51.1710813],[71.4916449,51.1726575],[71.4920929,51.1739335],[71.4946034,51.1756151],[71.4977602,51.17577],[71.5048948,51.1835424],[71.514936,51.1820584],[71.5208333,51.1798979],[71.523831,51.1781838],[71.5253406,51.1789965],[71.5283778,51.1791126],[71.5333989,51.1807268],[71.5337637,51.1811976],[71.5333774,51.1829058],[71.5339139,51.1834707],[71.5367248,51.1845064],[71.5409734,51.188595],[71.547797,51.190034],[71.5521958,51.1898054],[71.5570369,51.1908401],[71.5578845,51.1913309],[71.5580213,51.1920596],[71.5610576,51.1936061],[71.5629458,51.1952802],[71.5686321,51.1967325],[71.5800261,51.2027628],[71.5829456,51.2032895],[71.574053,51.2203837],[71.6186341,51.2485125],[71.6048098,51.2653714],[71.5940045,51.277498],[71.5764722,51.2630847],[71.5669799,51.2574786],[71.5661725,51.2528077],[71.5625837,51.2487499],[71.5583043,51.2485224],[71.5556757,51.2470198],[71.5510556,51.2431463],[71.4716703,51.2632895],[71.4982307,51.2836902],[71.4983851,51.2900534],[71.4759015,51.2864099],[71.4685522,51.2784611],[71.4503816,51.2715883],[71.4281192,51.2746716],[71.4000459,51.2673451],[71.3888316,51.2926189],[71.3851088,51.3023429],[71.3556138,51.2977218],[71.3641539,51.2759217],[71.3664137,51.2712199],[71.3466927,51.2673291],[71.345939,51.2685114],[71.3421249,51.2671126],[71.3408321,51.268733],[71.3349098,51.2666578],[71.3190271,51.2527296],[71.3032624,51.2358777]]],[[[71.6415258,51.3316656],[71.6513113,51.3215171],[71.6579553,51.3171883],[71.6665497,51.3130184],[71.6718742,51.3094308],[71.6742334,51.3111448],[71.6704181,51.3137676],[71.6733166,51.3156608],[71.6716,51.3165612],[71.6842449,51.3256499],[71.6866021,51.3288876],[71.6938307,51.3337089],[71.6941792,51.3335279],[71.6973656,51.3353448],[71.6999211,51.3388761],[71.7039107,51.3428285],[71.7063332,51.3476043],[71.7011348,51.349766],[71.697736,51.3465872],[71.6927107,51.3488787],[71.6950979,51.3511101],[71.6838682,51.3509429],[71.6678132,51.3398842],[71.6415258,51.3316656]]]]}},{"type":"Feature","properties":{"name":"Нура"},"geometry":{"type":"Polygon","coordinates":[[[71.2179735,51.1107853],[71.2258834,51.100177],[71.2454496,51.0683149],[71.2501937,51.0682048],[71.2539916,51.0655786],[71.2555245,51.0636718],[71.2557954,51.0618259],[71.2539919,51.0560155],[71.2548705,51.053916],[71.2549934,51.0489503],[71.2601754,51.0455761],[71.2633002,51.0417143],[71.2659556,51.040608],[71.267876,51.0387916],[71.2692869,51.0343018],[71.275578,51.0302923],[71.2806702,51.0252061],[71.2840927,51.0239475],[71.2859568,51.0222891],[71.2889636,51.0217028],[71.3028762,51.022883],[71.3077337,51.0223734],[71.31228,51.0234988],[71.3184008,51.0239256],[71.3316858,51.0216378],[71.3354717,51.019269],[71.3810483,51.0131553],[71.3804966,51.0211199],[71.3820416,51.032136],[71.4104944,51.1113966],[71.4146036,51.1339824],[71.4231115,51.1480808],[71.428229,51.1518972],[71.4274961,51.152501],[71.4247066,51.1584497],[71.4217843,51.160243],[71.4193296,51.1604207],[71.4093646,51.1572124],[71.4066781,51.1573524],[71.4022407,51.1582998],[71.3990306,51.1596778],[71.3952624,51.162813],[71.3738189,51.1645799],[71.3612069,51.1648915],[71.3563437,51.1645067],[71.3546551,51.1658602],[71.3499087,51.167674],[71.3480805,51.1699343],[71.3479517,51.1708115],[71.3443983,51.1727704],[71.3403128,51.1742126],[71.3374804,51.1744009],[71.3342458,51.1742352],[71.331086,51.1726789],[71.3305289,51.1738716],[71.3282427,51.1742799],[71.3269771,51.1753543],[71.326753,51.1756808],[71.3276231,51.1767469],[71.3265711,51.1778166],[71.323947,51.1775653],[71.3230568,51.1766888],[71.3218404,51.1769826],[71.3211747,51.1778504],[71.3198103,51.1772884],[71.3182217,51.178276],[71.3174176,51.1779289],[71.3172528,51.1784619],[71.3155117,51.1789065],[71.3147374,51.1798583],[71.3115794,51.1794109],[71.3116477,51.1800248],[71.3099852,51.1798654],[71.3094083,51.1802675],[71.30945,51.1815333],[71.3082089,51.1816475],[71.3075907,51.182316],[71.305213,51.1819986],[71.2986561,51.1834693],[71.2994568,51.1842088],[71.2980816,51.1843705],[71.2964269,51.1862331],[71.2975903,51.1866695],[71.2962439,51.1877165],[71.2941011,51.1880754],[71.2920546,51.1892472],[71.2862313,51.1890722],[71.2768789,51.1876402],[71.2721296,51.1880463],[71.2719774,51.1870717],[71.2698682,51.1861413],[71.2702716,51.1859404],[71.2704196,51.1846164],[71.2711467,51.1841879],[71.2708619,51.1833608],[71.2719504,51.1839419],[71.2727292,51.1837163],[71.2717839,51.1827928],[71.2733133,51.1813663],[71.2757154,51.1821007],[71.2757928,51.1815438],[71.2762762,51.1814653],[71.2759796,51.1803269],[71.2763428,51.1801176],[71.2775878,51.1808054],[71.2787784,51.1803735],[71.279826,51.1811407],[71.280582,51.1809462],[71.2810878,51.1798395],[71.2819187,51.1793943],[71.2653896,51.1743186],[71.2529817,51.1759598],[71.2544328,51.158226],[71.2427732,51.1576389],[71.2425949,51.152396],[71.2385809,51.1523178],[71.2385005,51.1496998],[71.2361616,51.149646],[71.2369904,51.138379],[71.2367195,51.1328682],[71.2374775,51.1325237],[71.2297137,51.122918],[71.2284488,51.1192183],[71.2289414,51.1151083],[71.2179735,51.1107853]]]}}]}